STARLINK-35498          
1 67017U 25293Q   26031.86430431  .00002835  00000+0  24523-3 0  9999
2 67017  70.0009 187.2273 0002892 271.4849  88.5979 14.98337104  9370
STARLINK-36106          
1 67018U 25293R   26031.85931956 -.00001491  00000+0 -11471-3 0  9994
2 67018  70.0008 187.2095 0003191 283.3863  76.6940 14.99147351  9373
STARLINK-35688          
1 67019U 25293S   26031.84454847  .00003920  00000+0  32918-3 0  9999
2 67019  70.0002 187.5614 0003011 273.3037  86.7778 14.99146360  9360
STARLINK-36172          
1 67020U 25293T   26031.81023325  .00002622  00000+0  22742-3 0  9993
2 67020  70.0004 187.4399 0003114 251.0947 108.9875 14.98331285  9355
STARLINK-36184          
1 67021U 25293U   26031.82693381  .00004124  00000+0  35328-3 0  9993
2 67021  70.0011 187.5001 0003017 267.4853  92.5960 14.98322548  9360
STARLINK-36209          
1 67022U 25293V   26031.86018966 -.00012421  00000+0 -10320-2 0  9993
2 67022  70.0003 187.2116 0002785 285.0459  75.0392 14.98442868  9379
STARLINK-36191          
1 67023U 25293W   26031.84065874  .00001957  00000+0  16832-3 0  9997
2 67023  70.0005 187.5475 0003068 276.8052  83.2758 14.99118557  9367
STARLINK-36192          
1 67024U 25293X   26031.95211236  .00004475  00000+0  38265-3 0  9997
2 67024  70.0000 187.1315 0003277 273.0718  87.0065 14.98323562  9380
STARLINK-36178          
1 67025U 25293Y   26031.91670139  .00016028  00000+0  13481-2 0  9994
2 67025  70.0001 187.1197 0002952 268.8390 350.3826 14.98327958  5882
STARLINK-36176          
1 67026U 25293Z   26031.84778628  .00003130  00000+0  27011-3 0  9994
2 67026  70.0007 187.1672 0003206 270.7221  89.3570 14.98312407  9360
STARLINK-36171          
1 67027U 25293AA  26031.86437975  .00029285  00000+0  23969-2 0  9990
2 67027  70.0008 187.2267 0003488 264.9068  95.1693 14.99204381  9373
STARLINK-36132          
1 67028U 25293AB  26031.83110388  .00002576  00000+0  22360-3 0  9993
2 67028  70.0001 187.5124 0003255 273.1110  86.9677 14.98334539  9361
STARLINK-36190          
1 67029U 25293AC  26031.85050105  .00005358  00000+0  44701-3 0  9990
2 67029  70.0006 187.5811 0003194 272.1154  87.9640 14.99143262  9362
STARLINK-36138          
1 67030U 25294A   26031.64532474  .00034061  00000+0  81837-3 0  9998
2 67030  42.9978 249.0250 0001322 246.8614 113.2103 15.40723707  9116
STARLINK-36150          
1 67031U 25294B   26031.97842240  .00043587  00000+0  10432-2 0  9995
2 67031  42.9986 247.2274 0003557 245.4197 114.6289 15.40739467  9160
STARLINK-36131          
1 67032U 25294C   26031.66100685  .00039414  00000+0  94515-3 0  9991
2 67032  42.9982 249.1471 0001431 252.3792 107.6908 15.40724318  9118
