[{"OBJECT_NAME":"STARLINK-35498","OBJECT_ID":"2025-293Q","EPOCH":"2026-01-31T20:44:35.892384","MEAN_MOTION":14.98337104,"ECCENTRICITY":0.0002892,"INCLINATION":70.0009,"RA_OF_ASC_NODE":187.2273,"ARG_OF_PERICENTER":271.4849,"MEAN_ANOMALY":88.5979,"EPHEMERIS_TYPE":0,"CLASSIFICATION_TYPE":"U","NORAD_CAT_ID":67017,"ELEMENT_SET_NO":999,"REV_AT_EPOCH":937,"BSTAR":0.00024522855,"MEAN_MOTION_DOT":2.835e-5,"MEAN_MOTION_DDOT":0},{"OBJECT_NAME":"STARLINK-36106","OBJECT_ID":"2025-293R","EPOCH":"2026-01-31T20:37:25.209984","MEAN_MOTION":14.99147351,"ECCENTRICITY":0.00031919,"INCLINATION":70.0008,"RA_OF_ASC_NODE":187.2095,"ARG_OF_PERICENTER":283.3863,"MEAN_ANOMALY":76.694,"EPHEMERIS_TYPE":0,"CLASSIFICATION_TYPE":"U","NORAD_CAT_ID":67018,"ELEMENT_SET_NO":999,"REV_AT_EPOCH":937,"BSTAR":-0.00011471276,"MEAN_MOTION_DOT":-1.491e-5,"MEAN_MOTION_DDOT":0},{"OBJECT_NAME":"STARLINK-35688","OBJECT_ID":"2025-293S","EPOCH":"2026-01-31T20:16:08.987808","MEAN_MOTION":14.9914636,"ECCENTRICITY":0.00030113,"INCLINATION":70.0002,"RA_OF_ASC_NODE":187.5614,"ARG_OF_PERICENTER":273.3037,"MEAN_ANOMALY":86.7778,"EPHEMERIS_TYPE":0,"CLASSIFICATION_TYPE":"U","NORAD_CAT_ID":67019,"ELEMENT_SET_NO":999,"REV_AT_EPOCH":936,"BSTAR":0.00032918027,"MEAN_MOTION_DOT":3.92e-5,"MEAN_MOTION_DDOT":0},{"OBJECT_NAME":"STARLINK-36172","OBJECT_ID":"2025-293T","EPOCH":"2026-01-31T19:26:44.152800","MEAN_MOTION":14.98331285,"ECCENTRICITY":0.0003114,"INCLINATION":70.0004,"RA_OF_ASC_NODE":187.4399,"ARG_OF_PERICENTER":251.0947,"MEAN_ANOMALY":108.9875,"EPHEMERIS_TYPE":0,"CLASSIFICATION_TYPE":"U","NORAD_CAT_ID":67020,"ELEMENT_SET_NO":999,"REV_AT_EPOCH":935,"BSTAR":0.00022742484,"MEAN_MOTION_DOT":2.622e-5,"MEAN_MOTION_DDOT":0},{"OBJECT_NAME":"STARLINK-36184","OBJECT_ID":"2025-293U","EPOCH":"2026-01-31T19:50:47.081184","MEAN_MOTION":14.98322548,"ECCENTRICITY":0.00030178,"INCLINATION":70.0011,"RA_OF_ASC_NODE":187.5001,"ARG_OF_PERICENTER":267.4853,"MEAN_ANOMALY":92.596,"EPHEMERIS_TYPE":0,"CLASSIFICATION_TYPE":"U","NORAD_CAT_ID":67021,"ELEMENT_SET_NO":999,"REV_AT_EPOCH":936,"BSTAR":0.00035328131,"MEAN_MOTION_DOT":4.124e-5,"MEAN_MOTION_DDOT":0},{"OBJECT_NAME":"STARLINK-36209","OBJECT_ID":"2025-293V","EPOCH":"2026-01-31T20:38:40.386624","MEAN_MOTION":14.98442868,"ECCENTRICITY":0.00027859,"INCLINATION":70.0003,"RA_OF_ASC_NODE":187.2116,"ARG_OF_PERICENTER":285.0459,"MEAN_ANOMALY":75.0392,"EPHEMERIS_TYPE":0,"CLASSIFICATION_TYPE":"U","NORAD_CAT_ID":67022,"ELEMENT_SET_NO":999,"REV_AT_EPOCH":937,"BSTAR":-0.0010320481,"MEAN_MOTION_DOT":-0.00012421,"MEAN_MOTION_DDOT":0},{"OBJECT_NAME":"STARLINK-36191","OBJECT_ID":"2025-293W","EPOCH":"2026-01-31T20:10:32.915136","MEAN_MOTION":14.99118557,"ECCENTRICITY":0.00030685,"INCLINATION":70.0005,"RA_OF_ASC_NODE":187.5475,"ARG_OF_PERICENTER":276.8052,"MEAN_ANOMALY":83.2758,"EPHEMERIS_TYPE":0,"CLASSIFICATION_TYPE":"U","NORAD_CAT_ID":67023,"ELEMENT_SET_NO":999,"REV_AT_EPOCH":936,"BSTAR":0.00016832426,"MEAN_MOTION_DOT":1.957e-5,"MEAN_MOTION_DDOT":0},{"OBJECT_NAME":"STARLINK-36192","OBJECT_ID":"2025-293X","EPOCH":"2026-01-31T22:51:02.507904","MEAN_MOTION":14.98323562,"ECCENTRICITY":0.00032779,"INCLINATION":70,"RA_OF_ASC_NODE":187.1315,"ARG_OF_PERICENTER":273.0718,"MEAN_ANOMALY":87.0065,"EPHEMERIS_TYPE":0,"CLASSIFICATION_TYPE":"U","NORAD_CAT_ID":67024,"ELEMENT_SET_NO":999,"REV_AT_EPOCH":938,"BSTAR":0.00038265414,"MEAN_MOTION_DOT":4.475e-5,"MEAN_MOTION_DDOT":0},{"OBJECT_NAME":"STARLINK-36178","OBJECT_ID":"2025-293Y","EPOCH":"2026-01-31T22:00:03.000096","MEAN_MOTION":14.98327958,"ECCENTRICITY":0.00029528,"INCLINATION":70.0001,"RA_OF_ASC_NODE":187.1197,"ARG_OF_PERICENTER":268.839,"MEAN_ANOMALY":350.3826,"EPHEMERIS_TYPE":0,"CLASSIFICATION_TYPE":"U","NORAD_CAT_ID":67025,"ELEMENT_SET_NO":999,"REV_AT_EPOCH":588,"BSTAR":0.0013480813,"MEAN_MOTION_DOT":0.00016028,"MEAN_MOTION_DDOT":0},{"OBJECT_NAME":"STARLINK-36176","OBJECT_ID":"2025-293Z","EPOCH":"2026-01-31T20:20:48.734592","MEAN_MOTION":14.98312407,"ECCENTRICITY":0.00032067,"INCLINATION":70.0007,"RA_OF_ASC_NODE":187.1672,"ARG_OF_PERICENTER":270.7221,"MEAN_ANOMALY":89.357,"EPHEMERIS_TYPE":0,"CLASSIFICATION_TYPE":"U","NORAD_CAT_ID":67026,"ELEMENT_SET_NO":999,"REV_AT_EPOCH":936,"BSTAR":0.00027011458,"MEAN_MOTION_DOT":3.13e-5,"MEAN_MOTION_DDOT":0},{"OBJECT_NAME":"STARLINK-36171","OBJECT_ID":"2025-293AA","EPOCH":"2026-01-31T20:44:42.410400","MEAN_MOTION":14.99204381,"ECCENTRICITY":0.00034881,"INCLINATION":70.0008,"RA_OF_ASC_NODE":187.2267,"ARG_OF_PERICENTER":264.9068,"MEAN_ANOMALY":95.1693,"EPHEMERIS_TYPE":0,"CLASSIFICATION_TYPE":"U","NORAD_CAT_ID":67027,"ELEMENT_SET_NO":999,"REV_AT_EPOCH":937,"BSTAR":0.0023969131,"MEAN_MOTION_DOT":0.00029285,"MEAN_MOTION_DDOT":0},{"OBJECT_NAME":"STARLINK-36132","OBJECT_ID":"2025-293AB","EPOCH":"2026-01-31T19:56:47.375232","MEAN_MOTION":14.98334539,"ECCENTRICITY":0.0003255,"INCLINATION":70.0001,"RA_OF_ASC_NODE":187.5124,"ARG_OF_PERICENTER":273.111,"MEAN_ANOMALY":86.9677,"EPHEMERIS_TYPE":0,"CLASSIFICATION_TYPE":"U","NORAD_CAT_ID":67028,"ELEMENT_SET_NO":999,"REV_AT_EPOCH":936,"BSTAR":0.00022360215,"MEAN_MOTION_DOT":2.576e-5,"MEAN_MOTION_DDOT":0},{"OBJECT_NAME":"STARLINK-36190","OBJECT_ID":"2025-293AC","EPOCH":"2026-01-31T20:24:43.290720","MEAN_MOTION":14.99143262,"ECCENTRICITY":0.00031942,"INCLINATION":70.0006,"RA_OF_ASC_NODE":187.5811,"ARG_OF_PERICENTER":272.1154,"MEAN_ANOMALY":87.964,"EPHEMERIS_TYPE":0,"CLASSIFICATION_TYPE":"U","NORAD_CAT_ID":67029,"ELEMENT_SET_NO":999,"REV_AT_EPOCH":936,"BSTAR":0.00044700788,"MEAN_MOTION_DOT":5.358e-5,"MEAN_MOTION_DDOT":0},{"OBJECT_NAME":"STARLINK-36138","OBJECT_ID":"2025-294A","EPOCH":"2026-01-31T15:29:16.057536","MEAN_MOTION":15.40723707,"ECCENTRICITY":0.0001322,"INCLINATION":42.9978,"RA_OF_ASC_NODE":249.025,"ARG_OF_PERICENTER":246.8614,"MEAN_ANOMALY":113.2103,"EPHEMERIS_TYPE":0,"CLASSIFICATION_TYPE":"U","NORAD_CAT_ID":67030,"ELEMENT_SET_NO":999,"REV_AT_EPOCH":911,"BSTAR":0.00081836872,"MEAN_MOTION_DOT":0.00034061,"MEAN_MOTION_DDOT":0},{"OBJECT_NAME":"STARLINK-36150","OBJECT_ID":"2025-294B","EPOCH":"2026-01-31T23:28:55.695360","MEAN_MOTION":15.40739467,"ECCENTRICITY":0.0003557,"INCLINATION":42.9986,"RA_OF_ASC_NODE":247.2274,"ARG_OF_PERICENTER":245.4197,"MEAN_ANOMALY":114.6289,"EPHEMERIS_TYPE":0,"CLASSIFICATION_TYPE":"U","NORAD_CAT_ID":67031,"ELEMENT_SET_NO":999,"REV_AT_EPOCH":916,"BSTAR":0.001043225,"MEAN_MOTION_DOT":0.00043587,"MEAN_MOTION_DDOT":0},{"OBJECT_NAME":"STARLINK-36131","OBJECT_ID":"2025-294C","EPOCH":"2026-01-31T15:51:50.991840","MEAN_MOTION":15.40724318,"ECCENTRICITY":0.00014317,"INCLINATION":42.9982,"RA_OF_ASC_NODE":249.1471,"ARG_OF_PERICENTER":252.3792,"MEAN_ANOMALY":107.6908,"EPHEMERIS_TYPE":0,"CLASSIFICATION_TYPE":"U","NORAD_CAT_ID":67032,"ELEMENT_SET_NO":999,"REV_AT_EPOCH":911,"BSTAR":0.00094515158,"MEAN_MOTION_DOT":0.00039414,"MEAN_MOTION_DDOT":0}]
